{"fetched_at":"2026-07-20T18:28:58.427Z","source":"https://celestrak.org/NORAD/elements/gp.php?GROUP=qianfan&FORMAT=JSON","constellation":"qianfan","records":[{"OBJECT_NAME":"QIANFAN-49","OBJECT_ID":"2024-232P","EPOCH":"2026-07-20T05:10:09.821280","CLASSIFICATION_TYPE":"U","MEAN_MOTION":13.51014245,"ECCENTRICITY":0.00121382,"INCLINATION":89.0077,"RA_OF_ASC_NODE":19.1861,"ARG_OF_PERICENTER":282.823,"MEAN_ANOMALY":77.1564,"EPHEMERIS_TYPE":0,"NORAD_CAT_ID":62250,"ELEMENT_SET_NO":999,"REV_AT_EPOCH":9747,"BSTAR":0.00002344779,"MEAN_MOTION_DOT":2.7e-7,"MEAN_MOTION_DDOT":0},{"OBJECT_NAME":"QIANFAN-50","OBJECT_ID":"2024-232Q","EPOCH":"2026-07-20T05:45:52.510176","CLASSIFICATION_TYPE":"U","MEAN_MOTION":13.51011066,"ECCENTRICITY":0.00138125,"INCLINATION":89.0083,"RA_OF_ASC_NODE":19.2038,"ARG_OF_PERICENTER":284.0488,"MEAN_ANOMALY":75.9127,"EPHEMERIS_TYPE":0,"NORAD_CAT_ID":62251,"ELEMENT_SET_NO":999,"REV_AT_EPOCH":9750,"BSTAR":0.0000241465,"MEAN_MOTION_DOT":2.7e-7,"MEAN_MOTION_DDOT":0},{"OBJECT_NAME":"QIANFAN-51","OBJECT_ID":"2024-232R","EPOCH":"2026-07-20T05:22:11.812512","CLASSIFICATION_TYPE":"U","MEAN_MOTION":13.51022344,"ECCENTRICITY":0.00113173,"INCLINATION":89.0077,"RA_OF_ASC_NODE":19.1857,"ARG_OF_PERICENTER":289.0508,"MEAN_ANOMALY":70.9417,"EPHEMERIS_TYPE":0,"NORAD_CAT_ID":62252,"ELEMENT_SET_NO":999,"REV_AT_EPOCH":9749,"BSTAR":0.000030166259,"MEAN_MOTION_DOT":3.1e-7,"MEAN_MOTION_DDOT":0},{"OBJECT_NAME":"QIANFAN-52","OBJECT_ID":"2024-232S","EPOCH":"2026-07-20T06:03:30.415104","CLASSIFICATION_TYPE":"U","MEAN_MOTION":13.51014066,"ECCENTRICITY":0.00132826,"INCLINATION":89.0073,"RA_OF_ASC_NODE":19.0479,"ARG_OF_PERICENTER":279.349,"MEAN_ANOMALY":80.6159,"EPHEMERIS_TYPE":0,"NORAD_CAT_ID":62253,"ELEMENT_SET_NO":999,"REV_AT_EPOCH":9758,"BSTAR":0.000035880821,"MEAN_MOTION_DOT":3.5e-7,"MEAN_MOTION_DDOT":0},{"OBJECT_NAME":"QIANFAN-53","OBJECT_ID":"2024-232T","EPOCH":"2026-07-20T05:33:59.512320","CLASSIFICATION_TYPE":"U","MEAN_MOTION":13.51009997,"ECCENTRICITY":0.00121667,"INCLINATION":89.008,"RA_OF_ASC_NODE":19.1711,"ARG_OF_PERICENTER":280.8162,"MEAN_ANOMALY":79.162,"EPHEMERIS_TYPE":0,"NORAD_CAT_ID":62254,"ELEMENT_SET_NO":999,"REV_AT_EPOCH":9754,"BSTAR":0.000030885095,"MEAN_MOTION_DOT":3.2e-7,"MEAN_MOTION_DDOT":0},{"OBJECT_NAME":"QIANFAN-54","OBJECT_ID":"2024-232U","EPOCH":"2026-07-20T06:33:09.375552","CLASSIFICATION_TYPE":"U","MEAN_MOTION":13.51013813,"ECCENTRICITY":0.00018044,"INCLINATION":89.0071,"RA_OF_ASC_NODE":18.826,"ARG_OF_PERICENTER":25.2913,"MEAN_ANOMALY":334.8326,"EPHEMERIS_TYPE":0,"NORAD_CAT_ID":62255,"ELEMENT_SET_NO":999,"REV_AT_EPOCH":12905,"BSTAR":0.000028158708,"MEAN_MOTION_DOT":3e-7,"MEAN_MOTION_DDOT":0},{"OBJECT_NAME":"QIANFAN-55","OBJECT_ID":"2025-016A","EPOCH":"2026-07-20T05:24:11.977632","CLASSIFICATION_TYPE":"U","MEAN_MOTION":13.51011711,"ECCENTRICITY":0.00193968,"INCLINATION":88.971,"RA_OF_ASC_NODE":80.4499,"ARG_OF_PERICENTER":74.6969,"MEAN_ANOMALY":285.6324,"EPHEMERIS_TYPE":0,"NORAD_CAT_ID":62785,"ELEMENT_SET_NO":999,"REV_AT_EPOCH":7682,"BSTAR":0.000074471938,"MEAN_MOTION_DOT":6e-7,"MEAN_MOTION_DDOT":0},{"OBJECT_NAME":"QIANFAN-56","OBJECT_ID":"2025-016B","EPOCH":"2026-07-20T05:47:55.407264","CLASSIFICATION_TYPE":"U","MEAN_MOTION":13.5102245,"ECCENTRICITY":0.00180381,"INCLINATION":88.9684,"RA_OF_ASC_NODE":80.226,"ARG_OF_PERICENTER":76.7953,"MEAN_ANOMALY":283.5209,"EPHEMERIS_TYPE":0,"NORAD_CAT_ID":62786,"ELEMENT_SET_NO":999,"REV_AT_EPOCH":7687,"BSTAR":0.000004781825,"MEAN_MOTION_DOT":1.5e-7,"MEAN_MOTION_DDOT":0},{"OBJECT_NAME":"QIANFAN-57","OBJECT_ID":"2025-016C","EPOCH":"2026-07-20T04:48:36.415872","CLASSIFICATION_TYPE":"U","MEAN_MOTION":13.51010363,"ECCENTRICITY":0.0001349,"INCLINATION":88.9715,"RA_OF_ASC_NODE":80.4521,"ARG_OF_PERICENTER":89.0384,"MEAN_ANOMALY":271.0922,"EPHEMERIS_TYPE":0,"NORAD_CAT_ID":62787,"ELEMENT_SET_NO":999,"REV_AT_EPOCH":7683,"BSTAR":0.000091763425,"MEAN_MOTION_DOT":7.1e-7,"MEAN_MOTION_DDOT":0},{"OBJECT_NAME":"QIANFAN-58","OBJECT_ID":"2025-016D","EPOCH":"2026-07-20T05:53:35.361024","CLASSIFICATION_TYPE":"U","MEAN_MOTION":13.51014919,"ECCENTRICITY":0.0015922,"INCLINATION":88.9685,"RA_OF_ASC_NODE":80.2121,"ARG_OF_PERICENTER":70.2077,"MEAN_ANOMALY":290.0789,"EPHEMERIS_TYPE":0,"NORAD_CAT_ID":62788,"ELEMENT_SET_NO":999,"REV_AT_EPOCH":7688,"BSTAR":0.00011181802,"MEAN_MOTION_DOT":8.4e-7,"MEAN_MOTION_DDOT":0},{"OBJECT_NAME":"QIANFAN-59","OBJECT_ID":"2025-016E","EPOCH":"2026-07-20T06:29:09.796128","CLASSIFICATION_TYPE":"U","MEAN_MOTION":13.5101908,"ECCENTRICITY":0.00163105,"INCLINATION":88.9709,"RA_OF_ASC_NODE":80.3351,"ARG_OF_PERICENTER":73.4732,"MEAN_ANOMALY":286.8209,"EPHEMERIS_TYPE":0,"NORAD_CAT_ID":62789,"ELEMENT_SET_NO":999,"REV_AT_EPOCH":7688,"BSTAR":0.000069274076,"MEAN_MOTION_DOT":5.7e-7,"MEAN_MOTION_DDOT":0},{"OBJECT_NAME":"QIANFAN-60","OBJECT_ID":"2025-016F","EPOCH":"2026-07-20T05:30:08.139168","CLASSIFICATION_TYPE":"U","MEAN_MOTION":13.51022006,"ECCENTRICITY":0.00178397,"INCLINATION":88.969,"RA_OF_ASC_NODE":80.269,"ARG_OF_PERICENTER":70.3061,"MEAN_ANOMALY":290.0013,"EPHEMERIS_TYPE":0,"NORAD_CAT_ID":62790,"ELEMENT_SET_NO":999,"REV_AT_EPOCH":7686,"BSTAR":0.000083943251,"MEAN_MOTION_DOT":6.6e-7,"MEAN_MOTION_DDOT":0},{"OBJECT_NAME":"QIANFAN-61","OBJECT_ID":"2025-016G","EPOCH":"2026-07-20T06:17:34.639872","CLASSIFICATION_TYPE":"U","MEAN_MOTION":13.51012406,"ECCENTRICITY":0.00168482,"INCLINATION":88.9756,"RA_OF_ASC_NODE":80.5772,"ARG_OF_PERICENTER":69.9458,"MEAN_ANOMALY":290.3505,"EPHEMERIS_TYPE":0,"NORAD_CAT_ID":62791,"ELEMENT_SET_NO":999,"REV_AT_EPOCH":7688,"BSTAR":0.00010770289,"MEAN_MOTION_DOT":8.2e-7,"MEAN_MOTION_DDOT":0},{"OBJECT_NAME":"QIANFAN-62","OBJECT_ID":"2025-016H","EPOCH":"2026-07-20T06:23:11.411520","CLASSIFICATION_TYPE":"U","MEAN_MOTION":13.51014498,"ECCENTRICITY":0.00181455,"INCLINATION":88.9703,"RA_OF_ASC_NODE":80.3271,"ARG_OF_PERICENTER":70.005,"MEAN_ANOMALY":290.3054,"EPHEMERIS_TYPE":0,"NORAD_CAT_ID":62792,"ELEMENT_SET_NO":999,"REV_AT_EPOCH":7687,"BSTAR":0.000074663073,"MEAN_MOTION_DOT":6e-7,"MEAN_MOTION_DDOT":0},{"OBJECT_NAME":"QIANFAN-63","OBJECT_ID":"2025-016J","EPOCH":"2026-07-20T05:12:12.032352","CLASSIFICATION_TYPE":"U","MEAN_MOTION":13.51017761,"ECCENTRICITY":0.0018228,"INCLINATION":88.971,"RA_OF_ASC_NODE":80.2986,"ARG_OF_PERICENTER":74.8551,"MEAN_ANOMALY":285.4615,"EPHEMERIS_TYPE":0,"NORAD_CAT_ID":62793,"ELEMENT_SET_NO":999,"REV_AT_EPOCH":7690,"BSTAR":0.000099869508,"MEAN_MOTION_DOT":7.7e-7,"MEAN_MOTION_DDOT":0},{"OBJECT_NAME":"QIANFAN-64","OBJECT_ID":"2025-016K","EPOCH":"2026-07-20T06:11:32.651520","CLASSIFICATION_TYPE":"U","MEAN_MOTION":13.51014256,"ECCENTRICITY":0.00161272,"INCLINATION":88.9697,"RA_OF_ASC_NODE":80.239,"ARG_OF_PERICENTER":68.6801,"MEAN_ANOMALY":291.607,"EPHEMERIS_TYPE":0,"NORAD_CAT_ID":62794,"ELEMENT_SET_NO":999,"REV_AT_EPOCH":7690,"BSTAR":0.000095232242,"MEAN_MOTION_DOT":7.4e-7,"MEAN_MOTION_DDOT":0}]}
