QIANFAN-49              
1 62250U 24232P   26201.21539145  .00000027  00000+0  23448-4 0  9992
2 62250  89.0077  19.1861 0012138 282.8230  77.1564 13.51014245 97477
QIANFAN-50              
1 62251U 24232Q   26201.24019109  .00000027  00000+0  24147-4 0  9996
2 62251  89.0083  19.2038 0013812 284.0488  75.9127 13.51011066 97504
QIANFAN-51              
1 62252U 24232R   26201.22374783  .00000031  00000+0  30166-4 0  9990
2 62252  89.0077  19.1857 0011317 289.0508  70.9417 13.51022344 97498
QIANFAN-52              
1 62253U 24232S   26201.25243536  .00000035  00000+0  35881-4 0  9998
2 62253  89.0073  19.0479 0013282 279.3490  80.6159 13.51014066 97582
QIANFAN-53              
1 62254U 24232T   26201.23193880  .00000032  00000+0  30885-4 0  9999
2 62254  89.0080  19.1711 0012166 280.8162  79.1620 13.51009997 97543
QIANFAN-54              
1 62255U 24232U   26201.27302518  .00000030  00000+0  28159-4 0  9993
2 62255  89.0071  18.8260 0001804  25.2913 334.8326 13.51013813129059
QIANFAN-55              
1 62785U 25016A   26201.22513863  .00000060  00000+0  74472-4 0  9996
2 62785  88.9710  80.4499 0019396  74.6969 285.6324 13.51011711 76820
QIANFAN-56              
1 62786U 25016B   26201.24161351  .00000015  00000+0  47818-5 0  9995
2 62786  88.9684  80.2260 0018038  76.7953 283.5209 13.51022450 76879
QIANFAN-57              
1 62787U 25016C   26201.20042148  .00000071  00000+0  91763-4 0  9993
2 62787  88.9715  80.4521 0001349  89.0384 271.0922 13.51010363 76839
QIANFAN-58              
1 62788U 25016D   26201.24554816  .00000084  00000+0  11182-3 0  9998
2 62788  88.9685  80.2121 0015922  70.2077 290.0789 13.51014919 76881
QIANFAN-59              
1 62789U 25016E   26201.27025227  .00000057  00000+0  69274-4 0  9997
2 62789  88.9709  80.3351 0016310  73.4732 286.8209 13.51019080 76884
QIANFAN-60              
1 62790U 25016F   26201.22926087  .00000066  00000+0  83943-4 0  9997
2 62790  88.9690  80.2690 0017839  70.3061 290.0013 13.51022006 76868
QIANFAN-61              
1 62791U 25016G   26201.26220648  .00000082  00000+0  10770-3 0  9997
2 62791  88.9756  80.5772 0016848  69.9458 290.3505 13.51012406 76883
QIANFAN-62              
1 62792U 25016H   26201.26610430  .00000060  00000+0  74663-4 0  9998
2 62792  88.9703  80.3271 0018145  70.0050 290.3054 13.51014498 76872
QIANFAN-63              
1 62793U 25016J   26201.21680593  .00000077  00000+0  99870-4 0  9996
2 62793  88.9710  80.2986 0018228  74.8551 285.4615 13.51017761 76901
QIANFAN-64              
1 62794U 25016K   26201.25801680  .00000074  00000+0  95232-4 0  9998
2 62794  88.9697  80.2390 0016127  68.6801 291.6070 13.51014256 76900
